     2              NAVIGATION DATA                         RINEX VERSION / TYPE
CCRINEXN V1.6.0 UX  CDDIS               18-DEC-16 17:31     PGM / RUN BY / DATE 
IGS BROADCAST EPHEMERIS FILE                                COMMENT             
    0.8382D-08 -0.1490D-07 -0.5960D-07  0.1192D-06          ION ALPHA           
    0.9421D+05 -0.1311D+06 -0.1311D+06  0.8520D+06          ION BETA            
    0.931322574615D-09 0.000000000000D+00   147456     1928 DELTA-UTC: A0,A1,T,W
    17                                                      LEAP SECONDS        
                                                            END OF HEADER       
12 16 12 17  9 59 44.0 0.389374326914D-03-0.113686837722D-12 0.000000000000D+00
    0.210000000000D+02 0.106187500000D+03 0.390766276984D-08 0.682169408923D+00
    0.532902777195D-05 0.615546188783D-02 0.602379441261D-05 0.515361826134D+04
    0.554384000000D+06-0.186264514923D-07-0.155663801398D+01 0.502914190292D-07
    0.989676731940D+00 0.279125000000D+03 0.779635543293D+00-0.804497796277D-08
    0.296083761649D-09 0.100000000000D+01 0.192700000000D+04 0.000000000000D+00
    0.200000000000D+01 0.000000000000D+00-0.125728547573D-07 0.210000000000D+02
    0.547200000000D+06 0.400000000000D+01 0.000000000000D+00 0.000000000000D+00
14 16 12 17  9 59 44.0-0.499128364026D-04-0.170530256582D-11 0.000000000000D+00
    0.140000000000D+02-0.765625000000D+01 0.465019369923D-08-0.264248462369D+01
   -0.325962901115D-06 0.864719878882D-02 0.627711415291D-05 0.515360331917D+04
    0.554384000000D+06 0.987201929092D-07 0.265314063162D+01-0.521540641785D-07
    0.962849611465D+00 0.259781250000D+03-0.194947707500D+01-0.793497338063D-08
   -0.287511976028D-09 0.100000000000D+01 0.192700000000D+04 0.000000000000D+00
    0.200000000000D+01 0.000000000000D+00-0.931322574616D-08 0.140000000000D+02
    0.551910000000D+06 0.400000000000D+01 0.000000000000D+00 0.000000000000D+00
17 16 12 17  9 59 44.0-0.196815468371D-03 0.909494701773D-12 0.000000000000D+00
    0.200000000000D+01-0.798125000000D+02 0.439339728835D-08-0.231958645012D+01
   -0.399164855480D-05 0.115512715420D-01 0.213831663132D-05 0.515355205345D+04
    0.554384000000D+06 0.119209289551D-06-0.518228189256D+00 0.521540641785D-07
    0.978617754443D+00 0.344031250000D+03-0.189286047760D+01-0.814105339327D-08
   -0.317870383435D-10 0.100000000000D+01 0.192700000000D+04 0.000000000000D+00
    0.200000000000D+01 0.000000000000D+00-0.107102096081D-07 0.200000000000D+01
    0.548700000000D+06 0.400000000000D+01 0.000000000000D+00 0.000000000000D+00
18 16 12 17  9 59 44.0 0.584692228585D-03 0.306954461848D-11 0.000000000000D+00
    0.100000000000D+02 0.195937500000D+02 0.561309088098D-08-0.710793709628D+00
    0.113621354103D-05 0.173326646909D-01 0.877119600773D-05 0.515372956276D+04
    0.554384000000D+06-0.176951289177D-06 0.148966340360D+01 0.199303030968D-06
    0.924835145359D+00 0.195343750000D+03-0.184487756189D+01-0.877000783106D-08
    0.371444042191D-09 0.100000000000D+01 0.192700000000D+04 0.000000000000D+00
    0.200000000000D+01 0.000000000000D+00-0.111758708954D-07 0.100000000000D+02
    0.548310000000D+06 0.000000000000D+00 0.000000000000D+00 0.000000000000D+00
19 16 12 17  9 59 44.0-0.517881475389D-03 0.795807864051D-12 0.000000000000D+00
    0.900000000000D+01-0.760625000000D+02 0.454518932538D-08 0.873632872144D+00
   -0.385381281376D-05 0.102477192413D-01 0.290386378765D-05 0.515363911629D+04
    0.554384000000D+06-0.137835741043D-06-0.469998673834D+00 0.894069671631D-07
    0.975831846399D+00 0.334406250000D+03 0.897181246491D+00-0.845999524990D-08
   -0.252153360342D-09 0.100000000000D+01 0.192700000000D+04 0.000000000000D+00
    0.200000000000D+01 0.000000000000D+00-0.149011611938D-07 0.900000000000D+01
    0.551820000000D+06 0.400000000000D+01 0.000000000000D+00 0.000000000000D+00
27 16 12 17  9 59 44.0 0.180497765541D-03 0.545696821064D-11 0.000000000000D+00
    0.800000000000D+01-0.567187500000D+02 0.449697303126D-08-0.216373744958D+01
   -0.304169952869D-05 0.405059067998D-02 0.256486237049D-05 0.515365750122D+04
    0.554384000000D+06 0.353902578354D-07-0.569308624801D+00-0.113621354103D-06
    0.973511010253D+00 0.337218750000D+03 0.293465212713D+00-0.828713090655D-08
   -0.389301930274D-10 0.100000000000D+01 0.192700000000D+04 0.000000000000D+00
    0.200000000000D+01 0.000000000000D+00 0.139698386192D-08 0.800000000000D+01
    0.547200000000D+06 0.400000000000D+01 0.000000000000D+00 0.000000000000D+00
 1 16 12 17 10  0  0.0 0.439113937318D-04 0.125055521494D-11 0.000000000000D+00
    0.110000000000D+03-0.919375000000D+02 0.429982196199D-08 0.190782915487D+01
   -0.475533306599D-05 0.607132702135D-02 0.105481594801D-04 0.515370205307D+04
    0.554400000000D+06-0.162050127983D-06 0.487937572193D+00 0.819563865662D-07
    0.966302727187D+00 0.179125000000D+03 0.558302833154D+00-0.786247036059D-08
    0.392873507616D-11 0.100000000000D+01 0.192700000000D+04 0.000000000000D+00
    0.290000000000D+01 0.000000000000D+00 0.512227416039D-08 0.110000000000D+03
    0.547200000000D+06 0.400000000000D+01 0.000000000000D+00 0.000000000000D+00
 2 16 12 17 10  0  0.0 0.509139616042D-03-0.613908923697D-11 0.000000000000D+00
    0.450000000000D+02-0.132781250000D+03 0.460090593191D-08 0.236396708513D+01
   -0.698305666447D-05 0.162936781999D-01 0.103954225779D-04 0.515370388985D+04
    0.554400000000D+06 0.782310962677D-07 0.438029615749D+00-0.298023223877D-06
    0.945183580976D+00 0.167312500000D+03-0.205414144219D+01-0.786032741419D-08
   -0.657170230921D-10 0.100000000000D+01 0.192700000000D+04 0.000000000000D+00
    0.200000000000D+01 0.000000000000D+00-0.200234353542D-07 0.450000000000D+02
    0.548370000000D+06 0.400000000000D+01 0.000000000000D+00 0.000000000000D+00
 3 16 12 17 10  0  0.0-0.102985650301D-03-0.136424205266D-11 0.000000000000D+00
    0.610000000000D+02 0.270312500000D+02 0.469912430882D-08 0.545460946192D+00
    0.133924186230D-05 0.412862747908D-03 0.880472362041D-05 0.515355652618D+04
    0.554400000000D+06-0.521540641785D-07 0.152983901372D+01 0.521540641785D-07
    0.959092245356D+00 0.207375000000D+03 0.859209812120D+00-0.801283376669D-08
    0.427160650098D-09 0.100000000000D+01 0.192700000000D+04 0.000000000000D+00
    0.200000000000D+01 0.000000000000D+00 0.186264514923D-08 0.610000000000D+02
    0.547200000000D+06 0.400000000000D+01 0.000000000000D+00 0.000000000000D+00
 4 16 12 17 10  0  0.0 0.139279291034D-04-0.118234311230D-10 0.000000000000D+00
    0.530000000000D+02-0.100593750000D+03 0.473769734411D-08 0.165138645618D+01
   -0.540912151337D-05 0.131923998706D-01 0.101700425148D-04 0.515370365906D+04
    0.554400000000D+06-0.229105353355D-06 0.452589622460D+00-0.266358256340D-06
    0.944356488055D+00 0.176656250000D+03 0.120466612542D+01-0.810605193531D-08
    0.182150444440D-10 0.100000000000D+01 0.192700000000D+04 0.000000000000D+00
    0.200000000000D+01 0.630000000000D+02-0.651925802231D-08 0.530000000000D+02
    0.547200000000D+06 0.400000000000D+01 0.000000000000D+00 0.000000000000D+00
 5 16 12 17 10  0  0.0-0.716294161975D-04 0.227373675443D-11 0.000000000000D+00
    0.690000000000D+02 0.143437500000D+02 0.491877649722D-08-0.144064529634D+01
    0.758096575737D-06 0.491603871342D-02 0.908039510250D-05 0.515364853859D+04
    0.554400000000D+06 0.104308128357D-06 0.151518558067D+01-0.335276126862D-07
    0.946103196150D+00 0.196218750000D+03 0.563814390184D+00-0.811033817882D-08
    0.493234841859D-09 0.100000000000D+01 0.192700000000D+04 0.000000000000D+00
    0.200000000000D+01 0.000000000000D+00-0.107102096081D-07 0.690000000000D+02
    0.547200000000D+06 0.000000000000D+00 0.000000000000D+00 0.000000000000D+00
 6 16 12 17 10  0  0.0 0.287075061351D-03 0.500222085975D-11 0.000000000000D+00
    0.570000000000D+02-0.114468750000D+03 0.423124767702D-08 0.229623406876D+01
   -0.582821667194D-05 0.411615124904D-03 0.107660889626D-04 0.515358981895D+04
    0.554400000000D+06 0.204890966415D-07 0.479552206223D+00-0.242143869400D-07
    0.966106918528D+00 0.171406250000D+03-0.145880508362D+01-0.786568478020D-08
   -0.610739725475D-10 0.100000000000D+01 0.192700000000D+04 0.000000000000D+00
    0.200000000000D+01 0.000000000000D+00 0.419095158577D-08 0.570000000000D+02
    0.547200000000D+06 0.400000000000D+01 0.000000000000D+00 0.000000000000D+00
 8 16 12 17 10  0  0.0-0.427123159170D-04-0.136424205266D-11 0.000000000000D+00
    0.140000000000D+02-0.615937500000D+02 0.476055543910D-08-0.150719345000D+01
   -0.313669443130D-05 0.224063487258D-02 0.241212546825D-05 0.515355557251D+04
    0.554400000000D+06-0.558793544769D-07-0.573603373386D+00-0.521540641785D-07
    0.965402589304D+00 0.338187500000D+03-0.967890187871D+00-0.841356474446D-08
   -0.689314426998D-10 0.100000000000D+01 0.192700000000D+04 0.000000000000D+00
    0.200000000000D+01 0.000000000000D+00 0.512227416039D-08 0.140000000000D+02
    0.547200000000D+06 0.400000000000D+01 0.000000000000D+00 0.000000000000D+00
 9 16 12 17 10  0  0.0 0.265311915427D-03 0.738964445190D-11 0.000000000000D+00
    0.100000000000D+02-0.790625000000D+01 0.503770984084D-08-0.202135468604D+01
   -0.473111867905D-06 0.810527126305D-03 0.602006912231D-05 0.515371706200D+04
    0.554400000000D+06 0.167638063431D-07 0.256773938893D+01 0.223517417908D-07
    0.954060083655D+00 0.260437500000D+03 0.174107447895D+01-0.823891461244D-08
   -0.340371320689D-09 0.100000000000D+01 0.192700000000D+04 0.000000000000D+00
    0.200000000000D+01 0.000000000000D+00 0.139698386192D-08 0.100000000000D+02
    0.552060000000D+06 0.400000000000D+01 0.000000000000D+00 0.000000000000D+00
